NORAD_CAT_ID,OBJECT_NAME,OBJECT_TYPE,EPOCH,MEAN_MOTION,ECCENTRICITY,INCLINATION,RA_OF_ASC_NODE,ARG_OF_PERICENTER,MEAN_ANOMALY,BSTAR,MEAN_MOTION_DOT,MEAN_MOTION_DDOT,TLE_LINE0,TLE_LINE1,TLE_LINE2,SEMIMAJOR_AXIS,PERIOD,APOGEE,PERIGEE,DECAYED
53840.0,STARLINK-4766,PAYLOAD,2024-05-22 00:06:44,15.08847082,0.0001488,53.22,2.1421,83.0439,277.0722,5.7143e-05,6.22e-06,0.0,0 STARLINK-4766,1 53840U 22114Y   24143.00467985  .00000622  00000-0  57143-4 0  9997,2 53840  53.2200   2.1421 0001488  83.0439 277.0722 15.08847082 93295,6917.859,95.437,540.753,538.694,0.0
53840.0,STARLINK-4766,PAYLOAD,2024-05-22 20:46:45,15.08842152,0.0001674,53.2207,358.2754,89.1204,270.998,2.9627e-05,1.84e-06,0.0,0 STARLINK-4766,1 53840U 22114Y   24143.86580559  .00000184  00000-0  29627-4 0  9993,2 53840  53.2207 358.2754 0001674  89.1204 270.9980 15.08842152 93426,6917.874,95.437,540.897,538.581,0.0
53840.0,STARLINK-4766,PAYLOAD,2024-05-22 23:57:31,15.08844988,0.0001787,53.2208,357.6851,119.5389,240.5782,-7.6643e-05,-1.508e-05,0.0,0 STARLINK-4766,1 53840U 22114Y   24143.99828504 -.00001508  00000-0 -76643-4 0  9995,2 53840  53.2208 357.6851 0001787 119.5389 240.5782 15.08844988 93988,6917.865,95.437,540.966,538.494,0.0
53840.0,STARLINK-4766,PAYLOAD,2024-05-23 20:37:32,15.08843294,0.0001436,53.2195,353.8209,99.8719,260.2436,-3.6143e-05,-8.63e-06,0.0,0 STARLINK-4766,1 53840U 22114Y   24144.85940753 -.00000863  00000-0 -36143-4 0  9996,2 53840  53.2195 353.8209 0001436  99.8719 260.2436 15.08843294 94116,6917.87,95.437,540.729,538.742,0.0
53840.0,STARLINK-4766,PAYLOAD,2024-05-24 14:06:47,15.08837605,0.0001428,53.2188,350.5506,104.3884,255.7266,6.2989e-05,7.15e-06,0.0,0 STARLINK-4766,1 53840U 22114Y   24145.58804857  .00000715  00000-0  62989-4 0  9992,2 53840  53.2188 350.5506 0001428 104.3884 255.7266 15.08837605 94229,6917.888,95.438,540.741,538.765,0.0
53840.0,STARLINK-4766,PAYLOAD,2024-05-24 20:28:20,15.08839953,0.0001043,53.2184,349.3685,114.1748,245.9353,-2.0267e-05,-6.1e-06,0.0,0 STARLINK-4766,1 53840U 22114Y   24145.85300944 -.00000610  00000-0 -20267-4 0  9999,2 53840  53.2184 349.3685 0001043 114.1748 245.9353 15.08839953 93720,6917.881,95.438,540.467,539.024,0.0
53840.0,STARLINK-4766,PAYLOAD,2024-05-24 23:39:05,15.08851457,0.0001135,53.2185,348.7733,100.0305,260.0815,7.4254e-05,8.94e-06,0.0,0 STARLINK-4766,1 53840U 22114Y   24145.98547856  .00000894  00000-0  74254-4 0  9995,2 53840  53.2185 348.7733 0001135 100.0305 260.0815 15.08851457 93749,6917.845,95.437,540.496,538.925,0.0
53840.0,STARLINK-4766,PAYLOAD,2024-05-25 20:19:15,15.08726177,0.0001847,53.2192,344.9164,109.3721,250.7471,-0.00090813,-0.00014667,0.0,0 STARLINK-4766,1 53840U 22114Y   24146.84670651 -.00014667  00000-0 -90813-3 0  9994,2 53840  53.2192 344.9164 0001847 109.3721 250.7471 15.08726177 93875,6918.228,95.445,541.371,538.816,0.0
53840.0,STARLINK-4766,PAYLOAD,2024-05-26 02:40:40,15.0882603,0.0001282,53.2189,343.7236,99.4449,260.6689,-4.7075e-05,-1.037e-05,0.0,0 STARLINK-4766,1 53840U 22114Y   24147.11158294 -.00001037  00000-0 -47075-4 0  9999,2 53840  53.2189 343.7236 0001282  99.4449 260.6689 15.08826030 93912,6917.923,95.438,540.675,538.901,0.0
53840.0,STARLINK-4766,PAYLOAD,2024-05-26 05:51:18,15.0894584,9.01e-05,53.2188,343.1318,137.2447,222.8616,0.00093126,0.00014607,0.0,0 STARLINK-4766,1 53840U 22114Y   24147.24396269  .00014607  00000-0  93126-3 0  9991,2 53840  53.2188 343.1318 0000901 137.2447 222.8616 15.08945840 93935,6917.557,95.431,540.045,538.799,0.0
53840.0,STARLINK-4766,PAYLOAD,2024-05-26 20:09:55,15.08826787,0.0001627,53.2192,340.4564,122.8736,237.2413,-4.9578e-05,-1.077e-05,0.0,0 STARLINK-4766,1 53840U 22114Y   24147.84022376 -.00001077  00000-0 -49578-4 0  9994,2 53840  53.2192 340.4564 0001627 122.8736 237.2413 15.08826787 94024,6917.921,95.438,540.911,538.66,0.0
53840.0,STARLINK-4766,PAYLOAD,2024-05-26 23:20:40,15.08845227,0.0001218,53.2184,339.8538,93.2316,266.8815,7.297e-05,8.74e-06,0.0,0 STARLINK-4766,1 53840U 22114Y   24147.97268891  .00000874  00000-0  72970-4 0  9996,2 53840  53.2184 339.8538 0001218  93.2316 266.8815 15.08845227 94045,6917.864,95.437,540.572,538.887,0.0
53840.0,STARLINK-4766,PAYLOAD,2024-05-27 20:00:41,15.08841403,0.0001232,53.2189,335.9834,83.4847,276.6286,0.00013049,1.79e-05,0.0,0 STARLINK-4766,1 53840U 22114Y   24148.83381115  .00001790  00000-0  13049-3 0  9996,2 53840  53.2189 335.9834 0001232  83.4847 276.6286 15.08841403 94179,6917.876,95.437,540.593,538.889,0.0
53840.0,STARLINK-4766,PAYLOAD,2024-05-28 11:54:32,15.0885655,0.0001243,53.2183,333.0113,88.7313,271.3821,-0.00016587,-2.928e-05,0.0,0 STARLINK-4766,1 53840U 22114Y   24149.49620756 -.00002928  00000-0 -16587-3 0  9992,2 53840  53.2183 333.0113 0001243  88.7313 271.3821 15.08856550 94817,6917.83,95.437,540.555,538.835,0.0
53840.0,STARLINK-4766,PAYLOAD,2024-05-28 21:26:51,15.08847851,0.000123,53.2186,331.2298,91.6989,268.4144,7.6028e-05,9.23e-06,0.0,0 STARLINK-4766,1 53840U 22114Y   24149.89364772  .00000923  00000-0  76028-4 0  9997,2 53840  53.2186 331.2298 0001230  91.6989 268.4144 15.08847851 94877,6917.856,95.437,540.572,538.87,0.0
53840.0,STARLINK-4766,PAYLOAD,2024-05-29 11:45:20,15.08834184,0.0001075,53.2188,328.5492,99.2603,260.851,-2.5145e-05,-6.88e-06,0.0,0 STARLINK-4766,1 53840U 22114Y   24150.48981871 -.00000688  00000-0 -25145-4 0  9993,2 53840  53.2188 328.5492 0001075  99.2603 260.8510 15.08834184 94427,6917.898,95.438,540.507,539.019,0.0
53840.0,STARLINK-4766,PAYLOAD,2024-05-29 18:06:52,15.08840061,0.000137,53.2183,327.3648,84.6715,275.4433,-2.2401e-05,-6.44e-06,0.0,0 STARLINK-4766,1 53840U 22114Y   24150.75477625 -.00000644  00000-0 -22401-4 0  9994,2 53840  53.2183 327.3648 0001370  84.6715 275.4433 15.08840061 95004,6917.88,95.438,540.693,538.797,0.0
53840.0,STARLINK-4766,PAYLOAD,2024-05-30 11:36:06,15.08845443,0.0001081,53.2177,324.0917,106.2978,253.8133,4.4763e-05,4.25e-06,0.0,0 STARLINK-4766,1 53840U 22114Y   24151.48340857  .00000425  00000-0  44763-4 0  9991,2 53840  53.2177 324.0917 0001081 106.2978 253.8133 15.08845443 94578,6917.864,95.437,540.477,538.981,0.0
53840.0,STARLINK-4766,PAYLOAD,2024-05-30 14:46:52,15.08850521,9.61e-05,53.2183,323.4979,96.1186,263.9915,5.7326e-05,6.25e-06,0.0,0 STARLINK-4766,1 53840U 22114Y   24151.61588561  .00000625  00000-0  57326-4 0  9993,2 53840  53.2183 323.4979 0000961  96.1186 263.9915 15.08850521 95136,6917.848,95.437,540.378,539.048,0.0
53840.0,STARLINK-4766,PAYLOAD,2024-05-30 17:57:38,15.08852093,0.0001141,53.2178,322.9035,90.5951,269.5172,0.00010753,1.424e-05,0.0,0 STARLINK-4766,1 53840U 22114Y   24151.74836289  .00001424  00000-0  10753-3 0  9990,2 53840  53.2178 322.9035 0001141  90.5951 269.5172 15.08852093 95151,6917.843,95.437,540.498,538.919,0.0
53840.0,STARLINK-4766,PAYLOAD,2024-05-31 14:37:39,15.08842446,0.0001153,53.2182,319.0382,109.5881,250.5236,7.0878e-05,8.4e-06,0.0,0 STARLINK-4766,1 53840U 22114Y   24152.60948873  .00000840  00000-0  70878-4 0  9995,2 53840  53.2182 319.0382 0001153 109.5881 250.5236 15.08842446 95280,6917.873,95.437,540.536,538.94,0.0
53840.0,STARLINK-4766,PAYLOAD,2024-05-31 17:48:26,15.08840563,0.0001246,53.2173,318.4424,98.2129,261.9004,9.9835e-05,1.301e-05,0.0,0 STARLINK-4766,1 53840U 22114Y   24152.74196896  .00001301  00000-0  99835-4 0  9997,2 53840  53.2173 318.4424 0001246  98.2129 261.9004 15.08840563 94761,6917.879,95.438,540.606,538.882,0.0
53840.0,STARLINK-4766,PAYLOAD,2024-06-01 11:17:41,15.08838466,0.0001166,53.2176,315.1704,104.4537,255.6585,-5.3091e-05,-1.133e-05,0.0,0 STARLINK-4766,1 53840U 22114Y   24153.47061465 -.00001133  00000-0 -53091-4 0  9990,2 53840  53.2176 315.1704 0001166 104.4537 255.6585 15.08838466 94878,6917.885,95.438,540.557,538.943,0.0
53840.0,STARLINK-4766,PAYLOAD,2024-06-01 14:28:27,15.0883953,0.0001221,53.2177,314.5767,101.4251,258.6879,-3.4343e-05,-8.34e-06,0.0,0 STARLINK-4766,1 53840U 22114Y   24153.60309364 -.00000834  00000-0 -34343-4 0  9994,2 53840  53.2177 314.5767 0001221 101.4251 258.6879 15.08839530 95438,6917.882,95.438,540.591,538.902,0.0
53840.0,STARLINK-4766,PAYLOAD,2024-06-02 09:33:05,15.08836015,0.0001275,53.2181,311.012,100.0736,260.0401,3.491e-06,-2.32e-06,0.0,0 STARLINK-4766,1 53840U 22114Y   24154.39797625 -.00000232  00000-0  34910-5 0  9994,2 53840  53.2181 311.0120 0001275 100.0736 260.0401 15.08836015 95556,6917.893,95.438,540.64,538.876,0.0
53840.0,STARLINK-4766,PAYLOAD,2024-06-03 03:02:19,15.08837407,0.0001296,53.2188,307.7412,99.0832,261.0306,-2.729e-05,-7.22e-06,0.0,0 STARLINK-4766,1 53840U 22114Y   24155.12661863 -.00000722  00000-0 -27290-4 0  9997,2 53840  53.2188 307.7412 0001296  99.0832 261.0306 15.08837407 95120,6917.888,95.438,540.65,538.857,0.0
53840.0,STARLINK-4766,PAYLOAD,2024-06-03 18:56:10,15.08845319,0.0001219,53.218,304.7652,86.8097,273.3035,0.00011581,1.556e-05,0.0,0 STARLINK-4766,1 53840U 22114Y   24155.78901139  .00001556  00000-0  11581-3 0  9991,2 53840  53.2180 304.7652 0001219  86.8097 273.3035 15.08845319 95224,6917.864,95.437,540.572,538.886,0.0
53840.0,STARLINK-4766,PAYLOAD,2024-06-03 20:31:33,15.08846411,0.0001214,53.2176,304.4671,84.5648,275.5482,0.00012302,1.671e-05,0.0,0 STARLINK-4766,1 53840U 22114Y   24155.85525034  .00001671  00000-0  12302-3 0  9995,2 53840  53.2176 304.4671 0001214  84.5648 275.5482 15.08846411 95773,6917.861,95.437,540.566,538.886,0.0
53840.0,STARLINK-4766,PAYLOAD,2024-06-04 02:53:07,15.08838697,0.0001673,53.2179,303.2753,78.9769,281.1411,1.6538e-05,-2.5e-07,0.0,0 STARLINK-4766,1 53840U 22114Y   24156.12022111 -.00000025  00000-0  16538-4 0  9993,2 53840  53.2179 303.2753 0001673  78.9769 281.1411 15.08838697 95271,6917.884,95.438,540.907,538.592,0.0
53840.0,STARLINK-4766,PAYLOAD,2024-06-04 18:46:58,15.08843003,0.0001184,53.215,300.3012,73.694,286.4182,5.2087e-05,5.41e-06,0.0,0 STARLINK-4766,1 53840U 22114Y   24156.78261620  .00000541  00000-0  52087-4 0  9996,2 53840  53.2150 300.3012 0001184  73.6940 286.4182 15.08843003 95917,6917.871,95.437,540.555,538.917,0.0
